GSAT0101 (GALILEO-PFM)  
1 37846U 11060A   24263.57681947 -.00000095  00000+0  00000+0 0  9993
2 37846  57.1260 358.9843 0000482  68.5355 291.5007  1.70475637 80414
GSAT0102 (GALILEO-FM2)  
1 37847U 11060B   24270.50971667 -.00000114  00000+0  00000+0 0  9998
2 37847  57.1258 358.7967 0002019 302.5392  37.8638  1.70475265 80404
GSAT0103 (GALILEO-FM3)  
1 38857U 12055A   24270.65533421  .00000021  00000+0  00000+0 0  9999
2 38857  55.4499 118.8152 0002082 271.9123  88.1507  1.70473680 74299
GSAT0201 (GALILEO 5)    
1 40128U 14050A   24271.49575037 -.00000039  00000+0  00000+0 0  9992
2 40128  49.5541 298.9454 1613725 155.2584 213.4453  1.85519582 66672
GSAT0202 (GALILEO 6)    
1 40129U 14050B   24271.21467655 -.00000037  00000+0  00000+0 0  9997
2 40129  49.5709 298.0349 1612850 156.0425 212.4044  1.85520278 68833
GSAT0203 (GALILEO 7)    
1 40544U 15017A   24263.35584236 -.00000095  00000+0  00000+0 0  9997
2 40544  56.9208 358.9115 0004288 240.2936 119.6947  1.70476103 58367
GSAT0204 (GALILEO 8)    
1 40545U 15017B   24265.95663241 -.00000104  00000+0  00000+0 0  9991
2 40545  56.9268 358.8566 0004913 230.7429 129.2462  1.70475493 21459
GSAT0205 (GALILEO 9)    
1 40889U 15045A   24271.00397832  .00000000  00000+0  00000+0 0  9990
2 40889  55.1764 238.9561 0003744  12.6852 347.2930  1.70473121 56303
GSAT0206 (GALILEO 10)   
1 40890U 15045B   24271.22462726 -.00000002  00000+0  00000+0 0  9994
2 40890  55.1757 238.9455 0002207 345.1650  14.7965  1.70473169 56331
GSAT0209 (GALILEO 12)   
1 41174U 15079A   24271.39458699  .00000027  00000+0  00000+0 0  9995
2 41174  55.4695 118.5051 0002600 353.7126   6.3740  1.70474163 54078
GSAT0208 (GALILEO 11)   
1 41175U 15079B   24271.61441716  .00000028  00000+0  00000+0 0  9994
2 41175  55.4691 118.4966 0002074   5.2438 354.8492  1.70474024 54496
GSAT0211 (GALILEO 14)   
1 41549U 16030A   24271.15033507 -.00000001  00000+0  00000+0 0  9993
2 41549  55.3240 238.9697 0003481 322.0744  37.8694  1.70473187 51962
GSAT0210 (GALILEO 13)   
1 41550U 16030B   24270.82188393  .00000001  00000+0  00000+0 0  9991
2 41550  55.3253 238.9770 0003649 245.1365 114.7951  1.70473538 51950
GSAT0207 (GALILEO 15)   
1 41859U 16069A   24270.51497382  .00000019  00000+0  00000+0 0  9991
2 41859  55.1348 118.5060 0002251 326.5874  33.4843  1.70474118 48685
GSAT0212 (GALILEO 16)   
1 41860U 16069B   24269.78257521  .00000014  00000+0  00000+0 0  9994
2 41860  55.1318 118.5224 0002373  26.2534 333.8421  1.70474223 48921
GSAT0213 (GALILEO 17)   
1 41861U 16069C   24271.32415456  .00000025  00000+0  00000+0 0  9993
2 41861  55.1351 118.4866 0001917 285.2114  74.8568  1.70474662 48813
GSAT0214 (GALILEO 18)   
1 41862U 16069D   24270.88290190  .00000022  00000+0  00000+0 0  9997
2 41862  55.1334 118.4923 0001036 299.0304  61.0467  1.70474295 48936
GSAT0215 (GALILEO 19)   
1 43055U 17079A   24270.19895143  .00000006  00000+0  00000+0 0  9990
2 43055  55.3017 238.8163 0003099 273.7476  86.1882  1.70473881 42264
GSAT0216 (GALILEO 20)   
1 43056U 17079B   24271.07715306 -.00000001  00000+0  00000+0 0  9997
2 43056  55.3016 238.7920 0004558 279.8530  80.0640  1.70474031 42299
GSAT0217 (GALILEO 21)   
1 43057U 17079C   24270.12449911  .00000006  00000+0  00000+0 0  9993
2 43057  55.3001 238.8168 0003954 293.4306  66.4993  1.70473933 42267
GSAT0218 (GALILEO 22)   
1 43058U 17079D   24270.34455747  .00000005  00000+0  00000+0 0  9991
2 43058  55.3005 238.8083 0005013 276.3537  83.5600  1.70473952 42291
GSAT0221 (GALILEO 25)   
1 43564U 18060A   24270.83236720 -.00000114  00000+0  00000+0 0  9998
2 43564  57.3002 358.7341 0004377 260.9667  99.0135  1.70476258 38456
GSAT0222 (GALILEO 26)   
1 43565U 18060B   24266.94494883 -.00000107  00000+0  00000+0 0  9994
2 43565  57.3044 358.8409 0004034 223.2823 136.7182  1.70475921 38430
GSAT0219 (GALILEO 23)   
1 43566U 18060C   24264.23376197 -.00000097  00000+0  00000+0 0  9990
2 43566  57.3036 358.9159 0003040 261.0839  98.9138  1.70475981 38366
GSAT0220 (GALILEO 24)   
1 43567U 18060D   24263.28128190 -.00000094  00000+0  00000+0 0  9990
2 43567  57.3037 358.9417 0003422 258.5290 101.4634  1.70475624 38333
GSAT0223 (GALILEO 27)   
1 49809U 21116A   24271.49830811 -.00000113  00000+0  00000+0 0  9995
2 49809  57.2931 358.6134 0003782 207.3557 246.1050  1.70476375 17486
GSAT0224 (GALILEO 28)   
1 49810U 21116B   24264.22831875 -.00000097  00000+0  00000+0 0  9992
2 49810  57.2948 358.8083 0003062 198.3612 225.8607  1.70475927 17386
GSAT0225 (GALILEO 29)   
1 59598U 24079A   24270.88363517  .00000021  00000+0  00000+0 0  9995
2 59598  54.7504 118.6617 0002057 159.7879  19.7740  1.70474424  2602
GSAT0227 (GALILEO 30)   
1 59600U 24079C   24270.18793042  .00000016  00000+0  00000+0 0  9996
2 59600  54.7454 118.6823 0003488 108.7876 251.3350  1.70474340  2641
